OBJECT_NAME,OBJECT_ID,EPOCH,MEAN_MOTION,ECCENTRICITY,INCLINATION,RA_OF_ASC_NODE,ARG_OF_PERICENTER,MEAN_ANOMALY,EPHEMERIS_TYPE,CLASSIFICATION_TYPE,NORAD_CAT_ID,ELEMENT_SET_NO,REV_AT_EPOCH,BSTAR,MEAN_MOTION_DOT,MEAN_MOTION_DDOT
GPS BIIR-5  (PRN 22),2000-040A,2026-07-02T06:14:14.036352,2.00557843,.01207855,54.8499,214.5635,302.6009,64.1837,0,U,26407,999,19025,0,.65E-6,0
GPS BIIR-8  (PRN 16),2003-005A,2026-07-02T01:36:41.977728,2.00559833,.01480935,54.8804,214.3775,53.1290,310.6217,0,U,27663,999,17161,0,.66E-6,0
GPS BIIR-11 (PRN 19),2004-009A,2026-07-01T22:09:02.124864,2.00554338,.0116696,54.8173,275.0916,173.7601,238.6833,0,U,28190,999,16324,0,-.19E-6,0
GPS BIIR-13 (PRN 02),2004-045A,2026-07-01T18:07:16.371840,2.00556681,.01699711,55.1270,324.3098,316.7509,39.4626,0,U,28474,999,15871,0,-.8E-6,0
GPS BIIRM-1 (PRN 17),2005-038A,2026-07-01T19:28:58.743264,2.00564777,.01280685,54.8661,272.5870,296.2778,65.1209,0,U,28874,999,15213,0,-.14E-6,0
INMARSAT 4-F2 (SOUTHPAN/PRN 122),2005-044A,2026-07-01T23:15:54.878688,1.00270699,.00032481,5.1130,43.6646,47.1892,321.6273,0,U,28899,999,7567,0,-.253E-5,0
GPS BIIRM-2 (PRN 31),2006-042A,2026-07-01T23:12:54.886752,2.00569064,.01068875,54.7122,150.7522,54.8070,317.5964,0,U,29486,999,14469,0,.44E-6,0
GPS BIIRM-3 (PRN 12),2006-052A,2026-07-01T09:05:41.387136,2.00559005,.00848869,54.9336,213.4435,90.9332,270.1120,0,U,29601,999,14369,0,.67E-6,0
GPS BIIRM-4 (PRN 15),2007-047A,2026-07-01T16:25:19.683840,2.00554677,.01673123,54.1055,79.4682,87.6957,274.2611,0,U,32260,999,13710,0,-.29E-6,0
COSMOS 2433 (720),2007-052A,2026-06-30T23:50:25.458144,2.13104454,.0003044,65.5682,315.4689,199.1332,160.8514,0,U,32275,999,14535,0,-.58E-6,0
COSMOS 2432 (719),2007-052B,2026-07-01T06:20:51.763200,2.13103422,.0007461,65.5843,315.5873,327.2592,184.5642,0,U,32276,999,14538,0,-.56E-6,0
GPS BIIRM-5 (PRN 29),2007-062A,2026-07-01T17:56:32.340192,2.00561025,.00359136,55.0200,273.5670,166.6056,6.7740,0,U,32384,999,13580,0,-.16E-6,0
COSMOS 2434 (721),2007-065A,2026-07-01T20:14:49.704576,2.13101375,.00012746,64.3196,191.4215,326.5999,215.4614,0,U,32393,999,14408,0,.8E-6,0
COSMOS 2436 (723),2007-065C,2026-06-30T14:26:22.399296,2.13100248,.00172892,64.3275,191.5357,353.5646,87.9496,0,U,32395,999,14401,0,.8E-6,0
GPS BIIRM-6 (PRN 07),2008-012A,2026-07-01T02:17:44.477088,2.00572867,.02115048,54.4990,149.3692,248.0010,109.7035,0,U,32711,999,13403,0,.35E-6,0
GPS BIIRM-8 (PRN 05),2009-043A,2026-07-02T00:38:36.653568,2.00553614,.00538092,56.2196,26.8694,83.8328,237.2001,0,U,35752,999,12365,0,-.64E-6,0
COSMOS 2456 (730),2009-070A,2026-06-29T17:58:50.816928,2.13103743,.00038814,65.0182,70.5436,338.2816,195.2198,0,U,36111,999,12869,0,-.27E-6,0
COSMOS 2457 (733),2009-070B,2026-07-01T22:34:37.377696,2.13101375,.00035346,65.0055,70.3121,124.0748,57.9657,0,U,36112,999,12874,0,-.13E-6,0
COSMOS 2460 (732),2010-007C,2026-06-30T01:20:32.777088,2.13101843,.00019507,65.4124,314.0307,124.3103,53.7611,0,U,36402,999,12700,0,-.64E-6,0
GPS BIIF-1  (PRN 25),2010-022A,2026-07-02T03:58:31.156032,2.00563201,.01264984,54.2695,207.9587,66.1356,114.4020,0,U,36585,999,11789,0,.68E-6,0
BEIDOU-2 IGSO-1 (C06),2010-036A,2026-06-30T08:59:38.680800,1.00268449,.00588274,54.3057,162.8407,225.1163,132.8817,0,U,36828,999,5822,0,-.82E-6,0
BEIDOU-2 G4 (C04),2010-057A,2026-07-01T23:40:29.280000,1.00271508,.0004859,3.6820,68.8626,189.1491,177.1205,0,U,37210,999,5744,0,-.104E-5,0
BEIDOU-2 IGSO-2 (C07),2010-068A,2026-06-30T16:18:05.669856,1.00279341,.00565661,47.5224,271.6646,213.8845,145.9362,0,U,37256,999,5693,0,-.187E-5,0
BEIDOU-2 IGSO-3 (C08),2011-013A,2026-07-01T12:49:50.551968,1.00264921,.00352253,62.4273,40.0161,184.0407,355.1634,0,U,37384,999,5580,0,-.159E-5,0
GSAT-8 (GAGAN/PRN 127),2011-022A,2026-07-02T03:58:46.131744,1.00272688,.00018355,2.1676,81.6514,172.7793,140.5689,0,U,37605,999,5336,0,.93E-6,0
BEIDOU-2 IGSO-4 (C09),2011-038A,2026-06-30T22:39:21.613824,1.00282911,.01596501,54.6040,165.5504,231.3791,315.8344,0,U,37763,999,5478,0,.17E-6,0
GSAT0101 (GALILEO-PFM),2011-060A,2026-06-28T13:55:20.086176,1.70475892,.00027603,56.9903,341.4525,57.0252,302.9933,0,U,37846,999,9131,0,-.91E-6,0
GSAT0102 (GALILEO-FM2),2011-060B,2026-07-02T00:33:36.562176,1.70476092,.00025907,56.9901,341.3598,13.5580,345.2921,0,U,37847,999,9137,0,-.8E-6,0
COSMOS 2476 (744),2011-064A,2026-06-30T08:21:38.746368,2.13103942,.00223312,65.2771,72.4268,237.2616,304.2291,0,U,37867,999,11404,0,-.21E-6,0
COSMOS 2477 (745),2011-064B,2026-06-30T13:53:38.816736,2.13103152,.00194059,65.2838,72.4985,238.4488,300.2195,0,U,37868,999,11404,0,-.19E-6,0
COSMOS 2475 (743),2011-064C,2026-07-01T13:53:39.050016,2.13101976,.00251635,65.2912,72.4865,252.1303,288.7676,0,U,37869,999,11407,0,-.13E-6,0
