NAVSTAR 48 (USA 151)    
1 26407U 00040A   26183.25988468  .00000065  00000+0  00000+0 0  9992
2 26407  54.8499 214.5635 0120785 302.6009  64.1837  2.00557843190259
NAVSTAR 51 (USA 166)    
1 27663U 03005A   26183.06715252  .00000066  00000+0  00000+0 0  9990
2 27663  54.8804 214.3775 0148093  53.1290 310.6217  2.00559833171610
NAVSTAR 54 (USA 177)    
1 28190U 04009A   26182.92294126 -.00000019  00000+0  00000+0 0  9996
2 28190  54.8173 275.0916 0116696 173.7601 238.6833  2.00554338163243
NAVSTAR 56 (USA 180)    
1 28474U 04045A   26182.75505060 -.00000080  00000+0  00000+0 0  9992
2 28474  55.1270 324.3098 0169971 316.7509  39.4626  2.00556681158715
NAVSTAR 57 (USA 183)    
1 28874U 05038A   26182.81179101 -.00000014  00000+0  00000+0 0  9996
2 28874  54.8661 272.5870 0128068 296.2778  65.1209  2.00564777152131
INMARSAT 4-F2           
1 28899U 05044A   26182.96938517 -.00000253  00000+0  00000+0 0  9995
2 28899   5.1130  43.6646 0003248  47.1892 321.6273  1.00270699 75678
NAVSTAR 58 (USA 190)    
1 29486U 06042A   26182.96730193  .00000044  00000+0  00000+0 0  9994
2 29486  54.7122 150.7522 0106887  54.8070 317.5964  2.00569064144699
NAVSTAR 59 (USA 192)    
1 29601U 06052A   26182.37895124  .00000067  00000+0  00000+0 0  9990
2 29601  54.9336 213.4435 0084886  90.9332 270.1120  2.00559005143694
NAVSTAR 60 (USA 196)    
1 32260U 07047A   26182.68425560 -.00000029  00000+0  00000+0 0  9996
2 32260  54.1055  79.4682 0167312  87.6957 274.2611  2.00554677137104
COSMOS 2433 [GLONASS-M] 
1 32275U 07052A   26181.99335021 -.00000058  00000+0  00000+0 0  9995
2 32275  65.5682 315.4689 0003044 199.1332 160.8514  2.13104454145355
COSMOS 2432 [GLONASS-M] 
1 32276U 07052B   26182.26448800 -.00000056  00000+0  00000+0 0  9995
2 32276  65.5843 315.5873 0007461 327.2592 184.5642  2.13103422145382
NAVSTAR 61 (USA 199)    
1 32384U 07062A   26182.74759653 -.00000016  00000+0  00000+0 0  9996
2 32384  55.0200 273.5670 0035913 166.6056   6.7740  2.00561025135807
COSMOS 2434 [GLONASS-M] 
1 32393U 07065A   26182.84363084  .00000080  00000+0  00000+0 0  9999
2 32393  64.3196 191.4215 0001274 326.5999 215.4614  2.13101375144084
COSMOS 2436 [GLONASS-M] 
1 32395U 07065C   26181.60164814  .00000080  00000+0  00000+0 0  9994
2 32395  64.3275 191.5357 0017289 353.5646  87.9496  2.13100248144015
NAVSTAR 62 (USA 201)    
1 32711U 08012A   26182.09565367  .00000035  00000+0  00000+0 0  9991
2 32711  54.4990 149.3692 0211504 248.0010 109.7035  2.00572867134032
NAVSTAR 64 (USA 206)    
1 35752U 09043A   26183.02681312 -.00000064  00000+0  00000+0 0  9990
2 35752  56.2196  26.8694 0053809  83.8328 237.2001  2.00553614123653
COSMOS 2456 [GLONASS-M] 
1 36111U 09070A   26180.74919927 -.00000027  00000+0  00000+0 0  9991
2 36111  65.0182  70.5436 0003881 338.2816 195.2198  2.13103743128697
COSMOS 2457 [GLONASS-M] 
1 36112U 09070B   26182.94071039 -.00000013  00000+0  00000+0 0  9994
2 36112  65.0055  70.3121 0003534 124.0748  57.9657  2.13101375128745
COSMOS 2460 [GLONASS-M] 
1 36402U 10007C   26181.05593492 -.00000064  00000+0  00000+0 0  9997
2 36402  65.4124 314.0307 0001950 124.3103  53.7611  2.13101843127002
NAVSTAR 65 (USA 213)    
1 36585U 10022A   26183.16563838  .00000068  00000+0  00000+0 0  9994
2 36585  54.2695 207.9587 0126498  66.1356 114.4020  2.00563201117892
BEIDOU-2 IGSO-1         
1 36828U 10036A   26181.37475325 -.00000082  00000+0  00000+0 0  9990
2 36828  54.3057 162.8407 0058827 225.1163 132.8817  1.00268449 58222
BEIDOU-2 G4             
1 37210U 10057A   26182.98645000 -.00000104  00000+0  00000+0 0  9991
2 37210   3.6820  68.8626 0004859 189.1491 177.1205  1.00271508 57446
BEIDOU-2 IGSO-2         
1 37256U 10068A   26181.67923229 -.00000187  00000+0  00000+0 0  9991
2 37256  47.5224 271.6646 0056566 213.8845 145.9362  1.00279341 56930
BEIDOU-2 IGSO-3         
1 37384U 11013A   26182.53461287 -.00000159  00000+0  00000+0 0  9990
2 37384  62.4273  40.0161 0035225 184.0407 355.1634  1.00264921 55804
GSAT-8                  
1 37605U 11022A   26183.16581171  .00000093  00000+0  00000+0 0  9997
2 37605   2.1676  81.6514 0001835 172.7793 140.5689  1.00272688 53367
BEIDOU-2 IGSO-4         
1 37763U 11038A   26181.94400016  .00000017  00000+0  00000+0 0  9997
2 37763  54.6040 165.5504 0159650 231.3791 315.8344  1.00282911 54781
GSAT0101 (GALILEO-PFM)  
1 37846U 11060A   26179.58009359 -.00000091  00000+0  00000+0 0  9999
2 37846  56.9903 341.4525 0002760  57.0252 302.9933  1.70475892 91318
GSAT0102 (GALILEO-FM2)  
1 37847U 11060B   26183.02333984 -.00000080  00000+0  00000+0 0  9996
2 37847  56.9901 341.3598 0002590  13.5580 345.2921  1.70476092 91374
COSMOS 2476 [GLONASS-M] 
1 37867U 11064A   26181.34836512 -.00000021  00000+0  00000+0 0  9995
2 37867  65.2771  72.4268 0022331 237.2616 304.2291  2.13103942114044
COSMOS 2477 [GLONASS-M] 
1 37868U 11064B   26181.57892149 -.00000019  00000+0  00000+0 0  9996
2 37868  65.2838  72.4985 0019405 238.4488 300.2195  2.13103152114045
COSMOS 2475 [GLONASS-M] 
1 37869U 11064C   26182.57892419 -.00000013  00000+0  00000+0 0  9992
2 37869  65.2912  72.4865 0025163 252.1303 288.7676  2.13101976114072
